{
  "type": "FeatureCollection",
  "features": [
    {
      "type": "Feature",
      "properties": {
        "norad_id": 34141,
        "name": "COSMOS 2251 DEB",
        "group": "cosmos-2251-debris",
        "lat": -21.34816977375994,
        "lon": 25.144552787800098,
        "alt_km": 759.0678909080825,
        "timestamp": "2025-12-11T07:02:24.124704+00:00",
        "meta_object_name": "COSMOS 2251 DEB",
        "meta_object_id": "1993-036LN",
        "meta_epoch": "2025-12-10T13:36:26.625312",
        "meta_mean_motion": 14.49202231,
        "meta_eccentricity": 0.004735,
        "meta_inclination": 74.0111,
        "meta_ra_of_asc_node": 32.9428,
        "meta_arg_of_pericenter": 119.9342,
        "meta_mean_anomaly": 30.2796,
        "meta_ephemeris_type": 0,
        "meta_classification_type": "U",
        "meta_norad_cat_id": 34141,
        "meta_element_set_no": 999,
        "meta_rev_at_epoch": 87662,
        "meta_bstar": 0.0023113,
        "meta_mean_motion_dot": 8.913e-05,
        "meta_mean_motion_ddot": 0,
        "tle_line1": "1 34141U 93036LN  25344.56697483  .00008913  00000+0  23113-2 0  9992",
        "tle_line2": "2 34141  74.0111  32.9428 0047350 119.9342  30.2796 14.49202231876629"
      },
      "geometry": {
        "type": "Point",
        "coordinates": [
          25.144552787800098,
          -21.34816977375994
        ]
      }
    },
    {
      "type": "Feature",
      "properties": {
        "norad_id": 34270,
        "name": "COSMOS 2251 DEB",
        "group": "cosmos-2251-debris",
        "lat": -31.014938218522378,
        "lon": 139.34063558994976,
        "alt_km": 693.4713643780015,
        "timestamp": "2025-12-11T07:02:24.124714+00:00",
        "meta_object_name": "COSMOS 2251 DEB",
        "meta_object_id": "1993-036LQ",
        "meta_epoch": "2025-12-10T21:53:06.724896",
        "meta_mean_motion": 14.65141999,
        "meta_eccentricity": 0.00477883,
        "meta_inclination": 74.0118,
        "meta_ra_of_asc_node": 310.1493,
        "meta_arg_of_pericenter": 103.4923,
        "meta_mean_anomaly": 257.1577,
        "meta_ephemeris_type": 0,
        "meta_classification_type": "U",
        "meta_norad_cat_id": 34270,
        "meta_element_set_no": 999,
        "meta_rev_at_epoch": 89069,
        "meta_bstar": 0.0010722933,
        "meta_mean_motion_dot": 5.835e-05,
        "meta_mean_motion_ddot": 0,
        "tle_line1": "1 34270U 93036LQ  25344.91188339  .00005835  00000+0  10723-2 0  9992",
        "tle_line2": "2 34270  74.0118 310.1493 0047788 103.4923 257.1577 14.65141999890691"
      },
      "geometry": {
        "type": "Point",
        "coordinates": [
          139.34063558994976,
          -31.014938218522378
        ]
      }
    },
    {
      "type": "Feature",
      "properties": {
        "norad_id": 34271,
        "name": "COSMOS 2251 DEB",
        "group": "cosmos-2251-debris",
        "lat": 48.683091513750945,
        "lon": 3.1127053926981043,
        "alt_km": 662.3220127280256,
        "timestamp": "2025-12-11T07:02:24.124724+00:00",
        "meta_object_name": "COSMOS 2251 DEB",
        "meta_object_id": "1993-036LR",
        "meta_epoch": "2025-12-10T20:43:46.073280",
        "meta_mean_motion": 14.70687905,
        "meta_eccentricity": 0.00190829,
        "meta_inclination": 74.02,
        "meta_ra_of_asc_node": 202.9725,
        "meta_arg_of_pericenter": 257.3396,
        "meta_mean_anomaly": 117.7738,
        "meta_ephemeris_type": 0,
        "meta_classification_type": "U",
        "meta_norad_cat_id": 34271,
        "meta_element_set_no": 999,
        "meta_rev_at_epoch": 88207,
        "meta_bstar": 0.0027612674,
        "meta_mean_motion_dot": 0.0001688,
        "meta_mean_motion_ddot": 0,
        "tle_line1": "1 34271U 93036LR  25344.86372770  .00016880  00000+0  27613-2 0  9999",
        "tle_line2": "2 34271  74.0200 202.9725 0019082 257.3396 117.7738 14.70687905882070"
      },
      "geometry": {
        "type": "Point",
        "coordinates": [
          3.1127053926981043,
          48.683091513750945
        ]
      }
    },
    {
      "type": "Feature",
      "properties": {
        "norad_id": 34273,
        "name": "COSMOS 2251 DEB",
        "group": "cosmos-2251-debris",
        "lat": -17.155541682529286,
        "lon": -84.7370427888155,
        "alt_km": 684.3335874683808,
        "timestamp": "2025-12-11T07:02:24.124734+00:00",
        "meta_object_name": "COSMOS 2251 DEB",
        "meta_object_id": "1993-036LT",
        "meta_epoch": "2025-12-10T17:41:11.223744",
        "meta_mean_motion": 14.61194544,
        "meta_eccentricity": 0.00141924,
        "meta_inclination": 74.0358,
        "meta_ra_of_asc_node": 91.2565,
        "meta_arg_of_pericenter": 217.0969,
        "meta_mean_anomaly": 295.0743,
        "meta_ephemeris_type": 0,
        "meta_classification_type": "U",
        "meta_norad_cat_id": 34273,
        "meta_element_set_no": 999,
        "meta_rev_at_epoch": 88592,
        "meta_bstar": 0.001703441,
        "meta_mean_motion_dot": 8.384e-05,
        "meta_mean_motion_ddot": 0,
        "tle_line1": "1 34273U 93036LT  25344.73693546  .00008384  00000+0  17034-2 0  9990",
        "tle_line2": "2 34273  74.0358  91.2565 0014192 217.0969 295.0743 14.61194544885928"
      },
      "geometry": {
        "type": "Point",
        "coordinates": [
          -84.7370427888155,
          -17.155541682529286
        ]
      }
    },
    {
      "type": "Feature",
      "properties": {
        "norad_id": 34274,
        "name": "COSMOS 2251 DEB",
        "group": "cosmos-2251-debris",
        "lat": -72.0072791467016,
        "lon": -46.61149250544022,
        "alt_km": 672.8544071548204,
        "timestamp": "2025-12-11T07:02:24.124745+00:00",
        "meta_object_name": "COSMOS 2251 DEB",
        "meta_object_id": "1993-036LU",
        "meta_epoch": "2025-12-10T17:28:34.038336",
        "meta_mean_motion": 14.64743662,
        "meta_eccentricity": 0.00221498,
        "meta_inclination": 74.0044,
        "meta_ra_of_asc_node": 72.4431,
        "meta_arg_of_pericenter": 222.6615,
        "meta_mean_anomaly": 299.8943,
        "meta_ephemeris_type": 0,
        "meta_classification_type": "U",
        "meta_norad_cat_id": 34274,
        "meta_element_set_no": 999,
        "meta_rev_at_epoch": 88646,
        "meta_bstar": 0.0020039469,
        "meta_mean_motion_dot": 0.00010702,
        "meta_mean_motion_ddot": 0,
        "tle_line1": "1 34274U 93036LU  25344.72817174  .00010702  00000+0  20039-2 0  9991",
        "tle_line2": "2 34274  74.0044  72.4431 0022149 222.6615 299.8943 14.64743662886463"
      },
      "geometry": {
        "type": "Point",
        "coordinates": [
          -46.61149250544022,
          -72.0072791467016
        ]
      }
    },
    {
      "type": "Feature",
      "properties": {
        "norad_id": 34276,
        "name": "COSMOS 2251 DEB",
        "group": "cosmos-2251-debris",
        "lat": -55.01499698133665,
        "lon": -67.76277038619656,
        "alt_km": 692.8651895686844,
        "timestamp": "2025-12-11T07:02:24.124755+00:00",
        "meta_object_name": "COSMOS 2251 DEB",
        "meta_object_id": "1993-036LW",
        "meta_epoch": "2025-12-10T17:27:25.409952",
        "meta_mean_motion": 14.57205314,
        "meta_eccentricity": 0.002265,
        "meta_inclination": 74.0233,
        "meta_ra_of_asc_node": 89.1466,
        "meta_arg_of_pericenter": 236.0535,
        "meta_mean_anomaly": 274.5545,
        "meta_ephemeris_type": 0,
        "meta_classification_type": "U",
        "meta_norad_cat_id": 34276,
        "meta_element_set_no": 999,
        "meta_rev_at_epoch": 88563,
        "meta_bstar": 0.0013500036,
        "meta_mean_motion_dot": 6.094e-05,
        "meta_mean_motion_ddot": 0,
        "tle_line1": "1 34276U 93036LW  25344.72737743  .00006094  00000+0  13500-2 0  9990",
        "tle_line2": "2 34276  74.0233  89.1466 0022650 236.0535 274.5545 14.57205314885630"
      },
      "geometry": {
        "type": "Point",
        "coordinates": [
          -67.76277038619656,
          -55.01499698133665
        ]
      }
    },
    {
      "type": "Feature",
      "properties": {
        "norad_id": 34297,
        "name": "COSMOS 2251 DEB",
        "group": "cosmos-2251-debris",
        "lat": -2.3113138330550598,
        "lon": -73.77273457955567,
        "alt_km": 760.2844342268718,
        "timestamp": "2025-12-11T07:02:24.124765+00:00",
        "meta_object_name": "COSMOS 2251 DEB",
        "meta_object_id": "1993-036MT",
        "meta_epoch": "2025-12-10T13:13:11.152992",
        "meta_mean_motion": 14.36626254,
        "meta_eccentricity": 0.0017199,
        "meta_inclination": 74.0485,
        "meta_ra_of_asc_node": 288.2516,
        "meta_arg_of_pericenter": 357.2857,
        "meta_mean_anomaly": 121.8043,
        "meta_ephemeris_type": 0,
        "meta_classification_type": "U",
        "meta_norad_cat_id": 34297,
        "meta_element_set_no": 999,
        "meta_rev_at_epoch": 88033,
        "meta_bstar": 0.0002529,
        "meta_mean_motion_dot": 7.19e-06,
        "meta_mean_motion_ddot": 0,
        "tle_line1": "1 34297U 93036MT  25344.55082353  .00000719  00000+0  25290-3 0  9992",
        "tle_line2": "2 34297  74.0485 288.2516 0017199 357.2857 121.8043 14.36626254880331"
      },
      "geometry": {
        "type": "Point",
        "coordinates": [
          -73.77273457955567,
          -2.3113138330550598
        ]
      }
    }
  ]
}